{
  "type": "FeatureCollection",
  "features": [
    {
      "type": "Feature",
      "properties": {
        "norad_id": 51444,
        "name": "CSG-2",
        "group": "resource",
        "lat": -35.14041602738581,
        "lon": 167.94946509940357,
        "alt_km": 629.39320408403,
        "timestamp": "2025-12-06T22:38:42.392777+00:00",
        "meta_object_name": "CSG-2",
        "meta_object_id": "2022-008A",
        "meta_epoch": "2025-12-06T14:42:13.758336",
        "meta_mean_motion": 14.82154024,
        "meta_eccentricity": 0.00014923,
        "meta_inclination": 97.8814,
        "meta_ra_of_asc_node": 162.0283,
        "meta_arg_of_pericenter": 88.7227,
        "meta_mean_anomaly": 271.4157,
        "meta_ephemeris_type": 0,
        "meta_classification_type": "U",
        "meta_norad_cat_id": 51444,
        "meta_element_set_no": 999,
        "meta_rev_at_epoch": 20806,
        "meta_bstar": 0.00011709698,
        "meta_mean_motion_dot": 8.8e-06,
        "meta_mean_motion_ddot": 0,
        "tle_line1": "1 51444U 22008A   25340.61265924  .00000880  00000+0  11710-3 0  9997",
        "tle_line2": "2 51444  97.8814 162.0283 0001492  88.7227 271.4157 14.82154024208063"
      },
      "geometry": {
        "type": "Point",
        "coordinates": [
          167.94946509940357,
          -35.14041602738581
        ]
      }
    },
    {
      "type": "Feature",
      "properties": {
        "norad_id": 52912,
        "name": "GAOFEN-12 03",
        "group": "resource",
        "lat": -64.41633658530667,
        "lon": -114.82807369417628,
        "alt_km": 639.0298515546938,
        "timestamp": "2025-12-06T22:38:42.392787+00:00",
        "meta_object_name": "GAOFEN-12 03",
        "meta_object_id": "2022-069A",
        "meta_epoch": "2025-12-06T14:49:32.764512",
        "meta_mean_motion": 14.79586963,
        "meta_eccentricity": 0.00023056,
        "meta_inclination": 97.8489,
        "meta_ra_of_asc_node": 228.108,
        "meta_arg_of_pericenter": 72.7159,
        "meta_mean_anomaly": 287.4305,
        "meta_ephemeris_type": 0,
        "meta_classification_type": "U",
        "meta_norad_cat_id": 52912,
        "meta_element_set_no": 999,
        "meta_rev_at_epoch": 18613,
        "meta_bstar": 0.00030861735,
        "meta_mean_motion_dot": 2.261e-05,
        "meta_mean_motion_ddot": 0,
        "tle_line1": "1 52912U 22069A   25340.61774033  .00002261  00000+0  30862-3 0  9995",
        "tle_line2": "2 52912  97.8489 228.1080 0002305  72.7159 287.4305 14.79586963186134"
      },
      "geometry": {
        "type": "Point",
        "coordinates": [
          -114.82807369417628,
          -64.41633658530667
        ]
      }
    },
    {
      "type": "Feature",
      "properties": {
        "norad_id": 54754,
        "name": "SWOT",
        "group": "resource",
        "lat": 55.29610947777837,
        "lon": 96.30797074521927,
        "alt_km": 887.4955629552323,
        "timestamp": "2025-12-06T22:38:42.392797+00:00",
        "meta_object_name": "SWOT",
        "meta_object_id": "2022-173A",
        "meta_epoch": "2025-12-06T15:12:07.077600",
        "meta_mean_motion": 14.00173321,
        "meta_eccentricity": 3.507e-05,
        "meta_inclination": 77.61,
        "meta_ra_of_asc_node": 295.233,
        "meta_arg_of_pericenter": 130.4348,
        "meta_mean_anomaly": 229.6835,
        "meta_ephemeris_type": 0,
        "meta_classification_type": "U",
        "meta_norad_cat_id": 54754,
        "meta_element_set_no": 999,
        "meta_rev_at_epoch": 15220,
        "meta_bstar": 0.00012120984,
        "meta_mean_motion_dot": 1.76e-06,
        "meta_mean_motion_ddot": 0,
        "tle_line1": "1 54754U 22173A   25340.63341525  .00000176  00000+0  12121-3 0  9996",
        "tle_line2": "2 54754  77.6100 295.2330 0000350 130.4348 229.6835 14.00173321152200"
      },
      "geometry": {
        "type": "Point",
        "coordinates": [
          96.30797074521927,
          55.29610947777837
        ]
      }
    },
    {
      "type": "Feature",
      "properties": {
        "norad_id": 57654,
        "name": "GAOFEN-12 04",
        "group": "resource",
        "lat": 75.44779353748346,
        "lon": 109.18159117673984,
        "alt_km": 622.3440307417013,
        "timestamp": "2025-12-06T22:38:42.392807+00:00",
        "meta_object_name": "GAOFEN-12 04",
        "meta_object_id": "2023-123A",
        "meta_epoch": "2025-12-06T14:04:12.240192",
        "meta_mean_motion": 14.79672508,
        "meta_eccentricity": 0.00014095,
        "meta_inclination": 97.912,
        "meta_ra_of_asc_node": 256.4368,
        "meta_arg_of_pericenter": 72.4683,
        "meta_mean_anomaly": 287.6683,
        "meta_ephemeris_type": 0,
        "meta_classification_type": "U",
        "meta_norad_cat_id": 57654,
        "meta_element_set_no": 999,
        "meta_rev_at_epoch": 12414,
        "meta_bstar": 0.00039343382,
        "meta_mean_motion_dot": 2.902e-05,
        "meta_mean_motion_ddot": 0,
        "tle_line1": "1 57654U 23123A   25340.58625278  .00002902  00000+0  39343-3 0  9992",
        "tle_line2": "2 57654  97.9120 256.4368 0001409  72.4683 287.6683 14.79672508124146"
      },
      "geometry": {
        "type": "Point",
        "coordinates": [
          109.18159117673984,
          75.44779353748346
        ]
      }
    },
    {
      "type": "Feature",
      "properties": {
        "norad_id": 59065,
        "name": "PARS 1",
        "group": "resource",
        "lat": -55.28215854335449,
        "lon": -37.34008473162826,
        "alt_km": 457.96487906952007,
        "timestamp": "2025-12-06T22:38:42.392817+00:00",
        "meta_object_name": "PARS 1",
        "meta_object_id": "2024-039Q",
        "meta_epoch": "2025-12-06T13:32:09.707136",
        "meta_mean_motion": 15.40771734,
        "meta_eccentricity": 0.00126876,
        "meta_inclination": 97.463,
        "meta_ra_of_asc_node": 311.3669,
        "meta_arg_of_pericenter": 90.4011,
        "meta_mean_anomaly": 269.8689,
        "meta_ephemeris_type": 0,
        "meta_classification_type": "U",
        "meta_norad_cat_id": 59065,
        "meta_element_set_no": 999,
        "meta_rev_at_epoch": 9893,
        "meta_bstar": 0.00043828627,
        "meta_mean_motion_dot": 0.00017919,
        "meta_mean_motion_ddot": 0,
        "tle_line1": "1 59065U 24039Q   25340.56400124  .00017919  00000+0  43829-3 0  9994",
        "tle_line2": "2 59065  97.4630 311.3669 0012687  90.4011 269.8689 15.40771734 98930"
      },
      "geometry": {
        "type": "Point",
        "coordinates": [
          -37.34008473162826,
          -55.28215854335449
        ]
      }
    },
    {
      "type": "Feature",
      "properties": {
        "norad_id": 59371,
        "name": "RESURS-P 4",
        "group": "resource",
        "lat": -82.7379917284079,
        "lon": 15.778956137726766,
        "alt_km": 478.21778510117474,
        "timestamp": "2025-12-06T22:38:42.392827+00:00",
        "meta_object_name": "RESURS-P 4",
        "meta_object_id": "2024-061A",
        "meta_epoch": "2025-12-06T13:37:52.299552",
        "meta_mean_motion": 15.32012844,
        "meta_eccentricity": 0.00019487,
        "meta_inclination": 97.2541,
        "meta_ra_of_asc_node": 287.0246,
        "meta_arg_of_pericenter": 53.353,
        "meta_mean_anomaly": 306.7891,
        "meta_ephemeris_type": 0,
        "meta_classification_type": "U",
        "meta_norad_cat_id": 59371,
        "meta_element_set_no": 999,
        "meta_rev_at_epoch": 9426,
        "meta_bstar": 0.00021880069,
        "meta_mean_motion_dot": 6.687e-05,
        "meta_mean_motion_ddot": 0,
        "tle_line1": "1 59371U 24061A   25340.56796643  .00006687  00000+0  21880-3 0  9996",
        "tle_line2": "2 59371  97.2541 287.0246 0001948  53.3530 306.7891 15.32012844 94260"
      },
      "geometry": {
        "type": "Point",
        "coordinates": [
          15.778956137726766,
          -82.7379917284079
        ]
      }
    },
    {
      "type": "Feature",
      "properties": {
        "norad_id": 59625,
        "name": "LEGION 1",
        "group": "resource",
        "lat": 77.09589076399183,
        "lon": -89.14514407085002,
        "alt_km": 510.9393945721831,
        "timestamp": "2025-12-06T22:38:42.392837+00:00",
        "meta_object_name": "LEGION 1",
        "meta_object_id": "2024-081A",
        "meta_epoch": "2025-12-06T11:07:03.852192",
        "meta_mean_motion": 15.16388017,
        "meta_eccentricity": 0.00044269,
        "meta_inclination": 97.5222,
        "meta_ra_of_asc_node": 55.1559,
        "meta_arg_of_pericenter": 344.0791,
        "meta_mean_anomaly": 16.0302,
        "meta_ephemeris_type": 0,
        "meta_classification_type": "U",
        "meta_norad_cat_id": 59625,
        "meta_element_set_no": 999,
        "meta_rev_at_epoch": 8832,
        "meta_bstar": 0.00044201594,
        "meta_mean_motion_dot": 8.522e-05,
        "meta_mean_motion_ddot": 0,
        "tle_line1": "1 59625U 24081A   25340.46323903  .00008522  00000+0  44202-3 0  9997",
        "tle_line2": "2 59625  97.5222  55.1559 0004426 344.0791  16.0302 15.16388017 88323"
      },
      "geometry": {
        "type": "Point",
        "coordinates": [
          -89.14514407085002,
          77.09589076399183
        ]
      }
    }
  ]
}